ONEWEB-0080             
1 45426U 20020C   25322.69050919 -.00000467  00000+0 -13534-2 0  9994
2 45426  87.8872  62.9805 0001963 101.6521 258.4828 13.11414030275119
ONEWEB-0090             
1 45427U 20020D   25322.71002539 -.00000135  00000+0 -41650-3 0  9996
2 45427  87.8873  62.9773 0001673 102.1614 257.9702 13.11418069275089
ONEWEB-0061             
1 45428U 20020E   25322.51322072  .00000366  00000+0  99605-3 0  9999
2 45428  87.8876  62.9981 0001653 105.1076 255.0235 13.11414470275012
ONEWEB-0081             
1 45429U 20020F   25322.72359649  .00000366  00000+0  99730-3 0  9992
2 45429  87.8871  62.9723 0001723 110.4316 249.6997 13.11418025275155
ONEWEB-0069             
1 45430U 20020G   25322.71257189 -.00000183  00000+0 -55192-3 0  9992
2 45430  87.8876  62.9712 0001651 105.7308 254.4002 13.11419015275081
ONEWEB-0031             
1 45431U 20020H   25322.68458603 -.00000294  00000+0 -86451-3 0  9998
2 45431  87.8857  62.9999 0001779  94.9961 265.1370 13.11413529275062
ONEWEB-0027             
1 45432U 20020J   25322.65893110  .00000033  00000+0  52671-4 0  9999
2 45432  87.9136  47.7023 0001732  88.5729 271.5601 13.17648273278639
ONEWEB-0064             
1 45433U 20020K   25322.75918897 -.00000241  00000+0 -71605-3 0  9991
2 45433  87.8863  62.9768 0001677  97.5888 262.5430 13.11413441275105
